CCSDS_OMM_VERS = 2.0
CREATION_DATE  = 
ORIGINATOR     = 

OBJECT_NAME    = STARLINK-36746
OBJECT_ID      = 2026-026N
CENTER_NAME    = EARTH
REF_FRAME      = TEME
TIME_SYSTEM    = UTC
MEAN_ELEMENT_THEORY = SGP/SGP4

EPOCH          = 2026-03-04T12:00:00.999648
MEAN_MOTION    = 15.50297030
ECCENTRICITY   = .00014415
INCLINATION    = 97.2840
RA_OF_ASC_NODE = 117.7926
ARG_OF_PERICENTER = 69.3572
MEAN_ANOMALY   = 354.8211

EPHEMERIS_TYPE = 0
CLASSIFICATION_TYPE = U
NORAD_CAT_ID   = 67733
ELEMENT_SET_NO = 999
REV_AT_EPOCH   = 447
BSTAR          = -.28373585E-1
MEAN_MOTION_DOT = -.1435642E-1
MEAN_MOTION_DDOT = 0

CCSDS_OMM_VERS = 2.0
CREATION_DATE  = 
ORIGINATOR     = 

OBJECT_NAME    = STARLINK-36749
OBJECT_ID      = 2026-026P
CENTER_NAME    = EARTH
REF_FRAME      = TEME
TIME_SYSTEM    = UTC
MEAN_ELEMENT_THEORY = SGP/SGP4

EPOCH          = 2026-03-04T12:00:00.999648
MEAN_MOTION    = 15.64328424
ECCENTRICITY   = .00014052
INCLINATION    = 97.2842
RA_OF_ASC_NODE = 117.9135
ARG_OF_PERICENTER = 81.8535
MEAN_ANOMALY   = 266.7103

EPHEMERIS_TYPE = 0
CLASSIFICATION_TYPE = U
NORAD_CAT_ID   = 67734
ELEMENT_SET_NO = 999
REV_AT_EPOCH   = 447
BSTAR          = -.22183446E-1
MEAN_MOTION_DOT = -.1877262E-1
MEAN_MOTION_DDOT = 0

CCSDS_OMM_VERS = 2.0
CREATION_DATE  = 
ORIGINATOR     = 

OBJECT_NAME    = STARLINK-36691
OBJECT_ID      = 2026-026Q
CENTER_NAME    = EARTH
REF_FRAME      = TEME
TIME_SYSTEM    = UTC
MEAN_ELEMENT_THEORY = SGP/SGP4

EPOCH          = 2026-03-04T12:00:00.999648
MEAN_MOTION    = 15.71428614
ECCENTRICITY   = .00016302
INCLINATION    = 97.2838
RA_OF_ASC_NODE = 117.9536
ARG_OF_PERICENTER = 70.0794
MEAN_ANOMALY   = 16.2431

EPHEMERIS_TYPE = 0
CLASSIFICATION_TYPE = U
NORAD_CAT_ID   = 67735
ELEMENT_SET_NO = 999
REV_AT_EPOCH   = 461
BSTAR          = -.16598646E-1
MEAN_MOTION_DOT = -.184291E-1
MEAN_MOTION_DDOT = 0

CCSDS_OMM_VERS = 2.0
CREATION_DATE  = 
ORIGINATOR     = 

OBJECT_NAME    = STARLINK-36317
OBJECT_ID      = 2026-026R
CENTER_NAME    = EARTH
REF_FRAME      = TEME
TIME_SYSTEM    = UTC
MEAN_ELEMENT_THEORY = SGP/SGP4

EPOCH          = 2026-03-04T12:00:00.999648
MEAN_MOTION    = 15.71173640
ECCENTRICITY   = .00015826
INCLINATION    = 97.2839
RA_OF_ASC_NODE = 117.9484
ARG_OF_PERICENTER = 67.3742
MEAN_ANOMALY   = 7.4111

EPHEMERIS_TYPE = 0
CLASSIFICATION_TYPE = U
NORAD_CAT_ID   = 67736
ELEMENT_SET_NO = 999
REV_AT_EPOCH   = 447
BSTAR          = -.16759891E-1
MEAN_MOTION_DOT = -.184108E-1
MEAN_MOTION_DDOT = 0

CCSDS_OMM_VERS = 2.0
CREATION_DATE  = 
ORIGINATOR     = 

OBJECT_NAME    = STARLINK-36330
OBJECT_ID      = 2026-026S
CENTER_NAME    = EARTH
REF_FRAME      = TEME
TIME_SYSTEM    = UTC
MEAN_ELEMENT_THEORY = SGP/SGP4

EPOCH          = 2026-03-04T12:00:00.999648
MEAN_MOTION    = 15.71522481
ECCENTRICITY   = .00015961
INCLINATION    = 97.2838
RA_OF_ASC_NODE = 117.9562
ARG_OF_PERICENTER = 69.1104
MEAN_ANOMALY   = 24.2299

EPHEMERIS_TYPE = 0
CLASSIFICATION_TYPE = U
NORAD_CAT_ID   = 67737
ELEMENT_SET_NO = 999
REV_AT_EPOCH   = 447
BSTAR          = -.16453439E-1
MEAN_MOTION_DOT = -.1835174E-1
MEAN_MOTION_DDOT = 0

CCSDS_OMM_VERS = 2.0
CREATION_DATE  = 
ORIGINATOR     = 

OBJECT_NAME    = STARLINK-36327
OBJECT_ID      = 2026-026T
CENTER_NAME    = EARTH
REF_FRAME      = TEME
TIME_SYSTEM    = UTC
MEAN_ELEMENT_THEORY = SGP/SGP4

EPOCH          = 2026-03-04T12:00:00.999648
MEAN_MOTION    = 15.71821169
ECCENTRICITY   = .0001668
INCLINATION    = 97.2837
RA_OF_ASC_NODE = 117.9609
ARG_OF_PERICENTER = 68.7699
MEAN_ANOMALY   = 34.8237

EPHEMERIS_TYPE = 0
CLASSIFICATION_TYPE = U
NORAD_CAT_ID   = 67738
ELEMENT_SET_NO = 999
REV_AT_EPOCH   = 448
BSTAR          = -.16355609E-1
MEAN_MOTION_DOT = -.1845993E-1
MEAN_MOTION_DDOT = 0

CCSDS_OMM_VERS = 2.0
CREATION_DATE  = 
ORIGINATOR     = 

OBJECT_NAME    = STARLINK-36329
OBJECT_ID      = 2026-026U
CENTER_NAME    = EARTH
REF_FRAME      = TEME
TIME_SYSTEM    = UTC
MEAN_ELEMENT_THEORY = SGP/SGP4

EPOCH          = 2026-03-04T12:00:00.999648
MEAN_MOTION    = 15.72856175
ECCENTRICITY   = .00017954
INCLINATION    = 97.2841
RA_OF_ASC_NODE = 117.9801
ARG_OF_PERICENTER = 72.4852
MEAN_ANOMALY   = 86.7037

EPHEMERIS_TYPE = 0
CLASSIFICATION_TYPE = U
NORAD_CAT_ID   = 67739
ELEMENT_SET_NO = 999
REV_AT_EPOCH   = 448
BSTAR          = -.15643329E-1
MEAN_MOTION_DOT = -.1845554E-1
MEAN_MOTION_DDOT = 0

CCSDS_OMM_VERS = 2.0
CREATION_DATE  = 
ORIGINATOR     = 

OBJECT_NAME    = STARLINK-36737
OBJECT_ID      = 2026-026V
CENTER_NAME    = EARTH
REF_FRAME      = TEME
TIME_SYSTEM    = UTC
MEAN_ELEMENT_THEORY = SGP/SGP4

EPOCH          = 2026-03-04T12:00:00.999648
MEAN_MOTION    = 15.71978274
ECCENTRICITY   = .00017206
INCLINATION    = 97.2838
RA_OF_ASC_NODE = 117.9637
ARG_OF_PERICENTER = 71.5792
MEAN_ANOMALY   = 41.9408

EPHEMERIS_TYPE = 0
CLASSIFICATION_TYPE = U
NORAD_CAT_ID   = 67740
ELEMENT_SET_NO = 999
REV_AT_EPOCH   = 448
BSTAR          = -.16303048E-1
MEAN_MOTION_DOT = -.1851609E-1
MEAN_MOTION_DDOT = 0

CCSDS_OMM_VERS = 2.0
CREATION_DATE  = 
ORIGINATOR     = 

OBJECT_NAME    = STARLINK-36740
OBJECT_ID      = 2026-026W
CENTER_NAME    = EARTH
REF_FRAME      = TEME
TIME_SYSTEM    = UTC
MEAN_ELEMENT_THEORY = SGP/SGP4

EPOCH          = 2026-03-04T12:00:00.999648
MEAN_MOTION    = 15.67707280
ECCENTRICITY   = .00016607
INCLINATION    = 97.2835
RA_OF_ASC_NODE = 117.9610
ARG_OF_PERICENTER = 69.4229
MEAN_ANOMALY   = 33.2250

EPHEMERIS_TYPE = 0
CLASSIFICATION_TYPE = U
NORAD_CAT_ID   = 67741
ELEMENT_SET_NO = 999
REV_AT_EPOCH   = 448
BSTAR          = -.19261341E-1
MEAN_MOTION_DOT = -.1868993E-1
MEAN_MOTION_DDOT = 0

CCSDS_OMM_VERS = 2.0
CREATION_DATE  = 
ORIGINATOR     = 

OBJECT_NAME    = STARLINK-36693
OBJECT_ID      = 2026-026X
CENTER_NAME    = EARTH
REF_FRAME      = TEME
TIME_SYSTEM    = UTC
MEAN_ELEMENT_THEORY = SGP/SGP4

EPOCH          = 2026-03-04T12:00:00.999648
MEAN_MOTION    = 15.68368903
ECCENTRICITY   = .00016137
INCLINATION    = 97.2840
RA_OF_ASC_NODE = 117.9550
ARG_OF_PERICENTER = 77.3218
MEAN_ANOMALY   = 10.2820

EPHEMERIS_TYPE = 0
CLASSIFICATION_TYPE = U
NORAD_CAT_ID   = 67742
ELEMENT_SET_NO = 999
REV_AT_EPOCH   = 461
BSTAR          = -.18695757E-1
MEAN_MOTION_DOT = -.1828799E-1
MEAN_MOTION_DDOT = 0

CCSDS_OMM_VERS = 2.0
CREATION_DATE  = 
ORIGINATOR     = 

OBJECT_NAME    = STARLINK-36717
OBJECT_ID      = 2026-026Y
CENTER_NAME    = EARTH
REF_FRAME      = TEME
TIME_SYSTEM    = UTC
MEAN_ELEMENT_THEORY = SGP/SGP4

EPOCH          = 2026-03-04T12:00:00.999648
MEAN_MOTION    = 15.70491538
ECCENTRICITY   = .00017711
INCLINATION    = 97.2840
RA_OF_ASC_NODE = 117.9683
ARG_OF_PERICENTER = 72.5142
MEAN_ANOMALY   = 51.2025

EPHEMERIS_TYPE = 0
CLASSIFICATION_TYPE = U
NORAD_CAT_ID   = 67743
ELEMENT_SET_NO = 999
REV_AT_EPOCH   = 461
BSTAR          = -.17356273E-1
MEAN_MOTION_DOT = -.185126E-1
MEAN_MOTION_DDOT = 0

CCSDS_OMM_VERS = 2.0
CREATION_DATE  = 
ORIGINATOR     = 

OBJECT_NAME    = STARLINK-36692
OBJECT_ID      = 2026-026Z
CENTER_NAME    = EARTH
REF_FRAME      = TEME
TIME_SYSTEM    = UTC
MEAN_ELEMENT_THEORY = SGP/SGP4

EPOCH          = 2026-03-04T12:00:00.999648
MEAN_MOTION    = 15.69237962
ECCENTRICITY   = .00016966
INCLINATION    = 97.2838
RA_OF_ASC_NODE = 117.9613
ARG_OF_PERICENTER = 61.7501
MEAN_ANOMALY   = 43.0636

EPHEMERIS_TYPE = 0
CLASSIFICATION_TYPE = U
NORAD_CAT_ID   = 67744
ELEMENT_SET_NO = 999
REV_AT_EPOCH   = 448
BSTAR          = -.18081745E-1
MEAN_MOTION_DOT = -.1832936E-1
MEAN_MOTION_DDOT = 0

